ORBCOMM FM37            
1 33064U 08031E   25239.63846323  .00001780  00000+0  26071-3 0  9998
2 33064  48.4418   3.9004 0005564 315.6296  57.8934 14.79974410924631
ORBCOMM FM40            
1 33065U 08031F   25239.57519802  .00002483  00000+0  33415-3 0  9992
2 33065  48.4428 347.0289 0006590 329.3471  44.1043 14.82289226924758
VESSELSAT 1             
1 37840U 11058C   25239.71926351  .00000363  00000+0  53126-4 0  9994
2 37840  19.9634  21.0419 0013535 253.5301 106.3615 14.11364887716424
ORBCOMM FM109           
1 40086U 14040A   25239.71698070  .00000592  00000+0  16338-3 0  9995
2 40086  47.0041  38.4470 0001930 294.3471  65.7213 14.58261725591500
ORBCOMM FM107           
1 40087U 14040B   25239.74201528  .00000750  00000+0  19699-3 0  9996
2 40087  47.0060  39.2653 0001698 246.5930 113.4777 14.58338612591588
ORBCOMM FM106           
1 40088U 14040C   25239.96148544  .00001401  00000+0  26462-3 0  9999
2 40088  47.0590 214.5758 0016506  37.0064 323.1962 14.69580316594037
ORBCOMM FM111           
1 40089U 14040D   25239.80148611  .00003555  00000+0  41700-3 0  9992
2 40089  47.0015  55.7996 0030282 177.0103 183.0980 14.86633873600885
ORBCOMM FM104           
1 40090U 14040E   25239.80924712  .00000688  00000+0  18992-3 0  9999
2 40090  47.0050  73.4209 0016374 173.6428 186.4668 14.56730737591061
